Location,Address,City/Town,Postal code,Latitude,Longitude
LCBO,3730 Lake Shore Boulevard West,Toronto,M8W1N6,43.5936541,-79.5407635
LCBO,2762 Lake Shore Boulevard West,Toronto,M8V1H1,43.6023828,-79.4993438
LCBO,1750 The Queensway,Toronto,M9C5H5,43.6148872,-79.5575417
LCBO,2218 Lake Shore Boulevard West,Toronto,M8V0C1,43.6222041,-79.4819762
LCBO,1090 The Queensway,Toronto,M8Z1P7,43.6232825,-79.5182328
LCBO,"95 Housey Street, Building B",Toronto,M5V0S4,43.6376026,-79.3998555
LCBO,85 Hanna Avenue,Toronto,M6K3S3,43.6398556,-79.4197486
LCBO,1357 Queen Street West,Toronto,M6K1M1,43.6407583,-79.434742
LCBO,662 Burnhamthorpe Road,Toronto,M9C2Z4,43.6421653,-79.5762351
LCBO,15 York Street,Toronto,M5J0A3,43.6425257,-79.3804546
LCBO,49 Spadina Avenue,Toronto,M5V2J1,43.6435568,-79.3939667
LCBO,15 Cooper Street,Toronto,M5E0C8,43.6443056,-79.3710295
LCBO,65 Front Street West,Toronto,M5J1E6,43.6450676,-79.3812245
LCBO,"200 Bay Street, Unit 115",Toronto,M5J2J2,43.6465539,-79.3798853
LCBO,619 Queen Street West,Toronto,M5V2B7,43.6472812,-79.4029079
LCBO,2946 Bloor Street West,Toronto,M8X1B7,43.6483665,-79.5082306
LCBO,100 King Street West,Toronto,M5X1B1,43.6486573,-79.381671
LCBO,87 Front Street East,Toronto,M5B1B8,43.6487718,-79.3722161
LCBO,4 King Street West,Toronto,M5H1B6,43.649429,-79.3784302
LCBO,1230 Dundas Street West,Toronto,M6J1X5,43.6496402,-79.4235196
LCBO,272 Queen Street West,Toronto,M5V2A1,43.6498633,-79.3924057
LCBO,222 Front Street East,Toronto,M5A1E7,43.6510655,-79.3654134
LCBO,2180 Bloor Street West,Toronto,M6S1N3,43.6517868,-79.4743874
LCBO,337 Spadina Avenue,Toronto,M5T2E9,43.6547384,-79.3982022
LCBO,2290 Dundas Street West,Toronto,M6R1X3,43.6553399,-79.4507672
LCBO,900 Dufferin Street,Toronto,M6H4A9,43.6558736,-79.4354848
LCBO,491 College Street,Toronto,M6G1A5,43.6559881,-79.4093893
LCBO,595 Bay Street,Toronto,M5G2C2,43.6565324,-79.3828452
LCBO,1015 Lake Shore Boulevard East,Toronto,M4M1B4,43.6582347,-79.3287763
LCBO,776 Queen Street East,Toronto,M4M1H4,43.6596804,-79.3475018
LCBO,777 Bay Street,Toronto,M5G2C8,43.6604486,-79.3844341
LCBO,270 The Kingsway,Toronto,M9A3T7,43.6615135,-79.5197696
LCBO,879 Bloor Street West,Toronto,M6G1M4,43.6618719,-79.4250958
LCBO,60 Carlton Street,Toronto,M5B2H5,43.6621911,-79.3802435
LCBO,547 Yonge Street,Toronto,M4Y1Y5,43.6644271,-79.3842109
LCBO,770 Bathurst Street,Toronto,M5S2R6,43.6644921,-79.4112448
LCBO,2803 Dundas Street West,Toronto,M6P1Y6,43.6652281,-79.4627459
LCBO,512 Parliament Street,Toronto,M4X1P4,43.6655344,-79.3687993
LCBO,3520 Dundas Street West,Toronto,M6S2S1,43.6661731,-79.4887638
LCBO,1654 Queen Street East,Toronto,M4L1G3,43.6669516,-79.3149933
LCBO,932 Gerrard Street East,Toronto,M4M1Z2,43.6682358,-79.3411191
LCBO,55 Bloor Street West,Toronto,M4W1A5,43.6692041,-79.3881592
LCBO,1986 Queen Street East,Toronto,M4L1J2,43.6700881,-79.3004266
LCBO,2151 St. Clair Avenue West,Toronto,M6N1K5,43.670747,-79.4729662
LCBO,20 Bloor Street East,Toronto,M4W3G7,43.6709153,-79.3852243
LCBO,750 Dupont Street,Toronto,M6G1Z6,43.6712,-79.42449
LCBO,211 Lloyd Manor Road,Toronto,M9B6H6,43.6753756,-79.557143
LCBO,232 Dupont Street,Toronto,M5R1V7,43.6754186,-79.4057248
LCBO,200 Danforth Avenue,Toronto,M4K1N5,43.676989,-79.3559735
LCBO,900 St. Clair Avenue West,Toronto,M6C1C5,43.6804767,-79.4334924
LCBO,1145 Danforth Avenue,Toronto,M4J1M5,43.6810059,-79.3333095
LCBO,10 Scrivener Square,Toronto,M4W3Y9,43.6811081,-79.3905073
LCBO,1100 Kingston Road,Toronto,M1N1N4,43.681477,-79.2824707
LCBO,415 The Westway,Toronto,M9R1H5,43.6830383,-79.5658755
LCBO,396 St. Clair Avenue West,Toronto,M5P3N3,43.6841477,-79.4153394
LCBO,111 St. Clair Avenue West,Toronto,M4V1N5,43.6867098,-79.3992581
LCBO,420 Spadina Road,Toronto,M5P2W2,43.6888385,-79.4131321
LCBO,3111 Danforth Avenue,Toronto,M1L1A9,43.6910674,-79.2858594
LCBO,1009 Coxwell Avenue,Toronto,M4C3G4,43.6966099,-79.3286441
LCBO,2409 Dufferin Street,Toronto,M6E3X7,43.6975514,-79.4506444
LCBO,1965 Yonge Street,Toronto,M4S0C1,43.699838,-79.396632
LCBO,1524 Bayview Avenue,Toronto,M4G3B4,43.7039939,-79.3747801
LCBO,333 Eglinton Avenue West,Toronto,M5N1A1,43.7041736,-79.4089294
LCBO,45 Overlea Boulevard,Toronto,M4H1C3,43.7057953,-79.3460276
LCBO,2300 Yonge Street,Toronto,M4P1E4,43.7072329,-79.399009
LCBO,101 Eglinton Avenue East,Toronto,M4P1H4,43.7073371,-79.3946869
LCBO,1339 Lawrence Avenue West,Toronto,M6L1A5,43.7085776,-79.4747997
LCBO,65 Wicksteed Avenue,Toronto,M4G4H9,43.7108861,-79.36002
LCBO,145 Silver Reign Drive,Toronto,M9W3W4,43.712663,-79.5546042
LCBO,2625d Weston Road,Toronto,M9N3W2,43.7126925,-79.5311888
LCBO,700 Lawrence Avenue West,Toronto,M6A3B4,43.7163914,-79.4463898
LCBO,502 Lawrence Avenue West,Toronto,M6A1A1,43.7204373,-79.4308733
LCBO,1618 Wilson Avenue,Toronto,M3L1A3,43.7212518,-79.5103946
LCBO,2963 Kingston Road,Toronto,M1M1P1,43.7251122,-79.2319425
LCBO,1900 Eglinton Avenue East,Toronto,M1L2L9,43.726617,-79.2938817
LCBO,1838-1844 Avenue Road,Toronto,M5M3Z5,43.730962,-79.4193989
LCBO,3372 Yonge Street,Toronto,M4N2M7,43.7325126,-79.4045012
LCBO,675 Wilson Avenue,Toronto,M3K1E3,43.7326263,-79.4548306
LCBO,510 Brimley Road,Toronto,M1J1A7,43.7355318,-79.2481545
LCBO,195 The Donway West,Toronto,M3C0H6,43.7363347,-79.3459249
LCBO,55 Ellesmere Road,Toronto,M1R4B7,43.7577834,-79.3140749
LCBO,3441 Lawrence Avenue East,Toronto,M1H1B3,43.7580199,-79.2324853
LCBO,1 York Gate Boulevard,Toronto,M3N3A1,43.75883265,-79.51951853
LCBO,1115 Lodestar Road,Toronto,M3J3C1,43.7593143,-79.4664333
LCBO,22 Poyntz Avenue,Toronto,M2N0J5,43.7600542,-79.4111633
LCBO,"5095 Yonge Street, A4",Toronto,M2N6Z4,43.7688696,-79.4124734
LCBO,2901 Bayview Avenue,Toronto,M2K1E6,43.7698549,-79.3843036
LCBO,4525 Kingston Road,Toronto,M1E2P1,43.7707478,-79.1840402
LCBO,21 William Kitchen Road,Toronto,M1P5B7,43.7740622,-79.27971
LCBO,420 Progress Avenue,Toronto,M1P5J1,43.776747,-79.2631305
LCBO,1800 Sheppard Avenue East,Toronto,M2J5A7,43.7779901,-79.3440914
LCBO,5508 Lawrence Avenue East,Toronto,M1C3B2,43.7795363,-79.1384804
LCBO,2181 Steeles Avenue West,Toronto,M3J3N2,43.7845758,-79.4775038
LCBO,2356 Kennedy Road,Toronto,M1T3H1,43.7848741,-79.2896409
LCBO,2946 Finch Avenue East,Toronto,M1W2T4,43.794094,-79.3294153
LCBO,6267 Yonge Street,Toronto,M2M3X6,43.7949348,-79.4188263
LCBO,785 Milner Avenue,Toronto,M1B3C3,43.7968481,-79.2047106
LCBO,1563 Steeles Avenue East,Toronto,M2M3Y7,43.8054203,-79.3841169
LCBO,1571 Sandhurst Circle,Toronto,M1V1V2,43.80846133,-79.27020021
LCBO,5979 Steeles Avenue East,Toronto,M1V5P7,43.8350112,-79.2562788
